{
  "type": "FeatureCollection",
  "features": [
    {
      "type": "Feature",
      "properties": {
        "norad_id": 67038,
        "name": "STARLINK-35775",
        "group": "last-30-days",
        "lat": 34.144958931778895,
        "lon": -176.4488846858637,
        "alt_km": 300.2111070348028,
        "timestamp": "2025-12-20T03:42:46.123296+00:00",
        "meta_object_name": "STARLINK-35775",
        "meta_object_id": "2025-294J",
        "meta_epoch": "2025-12-19T20:00:01.999008",
        "meta_mean_motion": 15.90066662,
        "meta_eccentricity": 0.000176,
        "meta_inclination": 42.9999,
        "meta_ra_of_asc_node": 138.8398,
        "meta_arg_of_pericenter": 277.4129,
        "meta_mean_anomaly": 96.8642,
        "meta_ephemeris_type": 0,
        "meta_classification_type": "U",
        "meta_norad_cat_id": 67038,
        "meta_element_set_no": 999,
        "meta_rev_at_epoch": 137,
        "meta_bstar": -0.0048731,
        "meta_mean_motion_dot": -0.01339277,
        "meta_mean_motion_ddot": 0,
        "tle_line1": "1 67038U 25294J   25353.83335647 -.01339277  00000+0 -48731-2 0  9991",
        "tle_line2": "2 67038  42.9999 138.8398 0001760 277.4129  96.8642 15.90066662  1371"
      },
      "geometry": {
        "type": "Point",
        "coordinates": [
          -176.4488846858637,
          34.144958931778895
        ]
      }
    },
    {
      "type": "Feature",
      "properties": {
        "norad_id": 67039,
        "name": "STARLINK-35705",
        "group": "last-30-days",
        "lat": 35.99596242413448,
        "lon": -171.93997984238453,
        "alt_km": 299.7896250587337,
        "timestamp": "2025-12-20T03:42:46.123306+00:00",
        "meta_object_name": "STARLINK-35705",
        "meta_object_id": "2025-294K",
        "meta_epoch": "2025-12-19T20:00:01.999008",
        "meta_mean_motion": 15.90170395,
        "meta_eccentricity": 0.0001765,
        "meta_inclination": 42.9998,
        "meta_ra_of_asc_node": 138.8298,
        "meta_arg_of_pericenter": 274.7691,
        "meta_mean_anomaly": 103.5311,
        "meta_ephemeris_type": 0,
        "meta_classification_type": "U",
        "meta_norad_cat_id": 67039,
        "meta_element_set_no": 999,
        "meta_rev_at_epoch": 130,
        "meta_bstar": -0.0049462,
        "meta_mean_motion_dot": -0.01363296,
        "meta_mean_motion_ddot": 0,
        "tle_line1": "1 67039U 25294K   25353.83335647 -.01363296  00000+0 -49462-2 0  9992",
        "tle_line2": "2 67039  42.9998 138.8298 0001765 274.7691 103.5311 15.90170395  1300"
      },
      "geometry": {
        "type": "Point",
        "coordinates": [
          -171.93997984238453,
          35.99596242413448
        ]
      }
    },
    {
      "type": "Feature",
      "properties": {
        "norad_id": 67040,
        "name": "STARLINK-35786",
        "group": "last-30-days",
        "lat": 35.13958237137344,
        "lon": -174.1025658498367,
        "alt_km": 300.0069374584891,
        "timestamp": "2025-12-20T03:42:46.123316+00:00",
        "meta_object_name": "STARLINK-35786",
        "meta_object_id": "2025-294L",
        "meta_epoch": "2025-12-19T20:00:01.999008",
        "meta_mean_motion": 15.90124025,
        "meta_eccentricity": 0.0001691,
        "meta_inclination": 42.9999,
        "meta_ra_of_asc_node": 138.8347,
        "meta_arg_of_pericenter": 272.2317,
        "meta_mean_anomaly": 104.1611,
        "meta_ephemeris_type": 0,
        "meta_classification_type": "U",
        "meta_norad_cat_id": 67040,
        "meta_element_set_no": 999,
        "meta_rev_at_epoch": 130,
        "meta_bstar": -0.0049193,
        "meta_mean_motion_dot": -0.01353872,
        "meta_mean_motion_ddot": 0,
        "tle_line1": "1 67040U 25294L   25353.83335647 -.01353872  00000+0 -49193-2 0  9994",
        "tle_line2": "2 67040  42.9999 138.8347 0001691 272.2317 104.1611 15.90124025  1303"
      },
      "geometry": {
        "type": "Point",
        "coordinates": [
          -174.1025658498367,
          35.13958237137344
        ]
      }
    },
    {
      "type": "Feature",
      "properties": {
        "norad_id": 67041,
        "name": "STARLINK-35765",
        "group": "last-30-days",
        "lat": 36.775110509328385,
        "lon": -169.8356520576199,
        "alt_km": 299.5506993085646,
        "timestamp": "2025-12-20T03:42:46.123326+00:00",
        "meta_object_name": "STARLINK-35765",
        "meta_object_id": "2025-294M",
        "meta_epoch": "2025-12-19T20:00:01.999008",
        "meta_mean_motion": 15.90215365,
        "meta_eccentricity": 0.000173,
        "meta_inclination": 42.9997,
        "meta_ra_of_asc_node": 138.8251,
        "meta_arg_of_pericenter": 275.19,
        "meta_mean_anomaly": 104.9267,
        "meta_ephemeris_type": 0,
        "meta_classification_type": "U",
        "meta_norad_cat_id": 67041,
        "meta_element_set_no": 999,
        "meta_rev_at_epoch": 130,
        "meta_bstar": -0.0049547,
        "meta_mean_motion_dot": -0.01368116,
        "meta_mean_motion_ddot": 0,
        "tle_line1": "1 67041U 25294M   25353.83335647 -.01368116  00000+0 -49547-2 0  9995",
        "tle_line2": "2 67041  42.9997 138.8251 0001730 275.1900 104.9267 15.90215365  1303"
      },
      "geometry": {
        "type": "Point",
        "coordinates": [
          -169.8356520576199,
          36.775110509328385
        ]
      }
    },
    {
      "type": "Feature",
      "properties": {
        "norad_id": 67042,
        "name": "STARLINK-35773",
        "group": "last-30-days",
        "lat": 37.603898609242684,
        "lon": -167.42537212908957,
        "alt_km": 299.6055537261491,
        "timestamp": "2025-12-20T03:42:46.123338+00:00",
        "meta_object_name": "STARLINK-35773",
        "meta_object_id": "2025-294N",
        "meta_epoch": "2025-12-19T20:00:01.999008",
        "meta_mean_motion": 15.90281713,
        "meta_eccentricity": 0.0002021,
        "meta_inclination": 42.9999,
        "meta_ra_of_asc_node": 138.82,
        "meta_arg_of_pericenter": 271.8693,
        "meta_mean_anomaly": 110.2887,
        "meta_ephemeris_type": 0,
        "meta_classification_type": "U",
        "meta_norad_cat_id": 67042,
        "meta_element_set_no": 999,
        "meta_rev_at_epoch": 145,
        "meta_bstar": -0.0051646,
        "meta_mean_motion_dot": -0.01423081,
        "meta_mean_motion_ddot": 0,
        "tle_line1": "1 67042U 25294N   25353.83335647 -.01423081  00000+0 -51646-2 0  9992",
        "tle_line2": "2 67042  42.9999 138.8200 0002021 271.8693 110.2887 15.90281713  1450"
      },
      "geometry": {
        "type": "Point",
        "coordinates": [
          -167.42537212908957,
          37.603898609242684
        ]
      }
    },
    {
      "type": "Feature",
      "properties": {
        "norad_id": 67043,
        "name": "STARLINK-35901",
        "group": "last-30-days",
        "lat": 38.364369365571214,
        "lon": -165.02074230294548,
        "alt_km": 299.1325745544118,
        "timestamp": "2025-12-20T03:42:46.123348+00:00",
        "meta_object_name": "STARLINK-35901",
        "meta_object_id": "2025-294P",
        "meta_epoch": "2025-12-19T20:00:01.999008",
        "meta_mean_motion": 15.90309501,
        "meta_eccentricity": 0.000172,
        "meta_inclination": 42.9998,
        "meta_ra_of_asc_node": 138.8152,
        "meta_arg_of_pericenter": 273.8821,
        "meta_mean_anomaly": 110.2692,
        "meta_ephemeris_type": 0,
        "meta_classification_type": "U",
        "meta_norad_cat_id": 67043,
        "meta_element_set_no": 999,
        "meta_rev_at_epoch": 145,
        "meta_bstar": -0.0049883,
        "meta_mean_motion_dot": -0.01382106,
        "meta_mean_motion_ddot": 0,
        "tle_line1": "1 67043U 25294P   25353.83335647 -.01382106  00000+0 -49883-2 0  9995",
        "tle_line2": "2 67043  42.9998 138.8152 0001720 273.8821 110.2692 15.90309501  1456"
      },
      "geometry": {
        "type": "Point",
        "coordinates": [
          -165.02074230294548,
          38.364369365571214
        ]
      }
    },
    {
      "type": "Feature",
      "properties": {
        "norad_id": 67044,
        "name": "STARLINK-35884",
        "group": "last-30-days",
        "lat": 39.05371974242186,
        "lon": -162.64332155818656,
        "alt_km": 298.9300712199847,
        "timestamp": "2025-12-20T03:42:46.123360+00:00",
        "meta_object_name": "STARLINK-35884",
        "meta_object_id": "2025-294Q",
        "meta_epoch": "2025-12-19T20:00:01.999008",
        "meta_mean_motion": 15.90349546,
        "meta_eccentricity": 0.0001772,
        "meta_inclination": 43,
        "meta_ra_of_asc_node": 138.8101,
        "meta_arg_of_pericenter": 275.8491,
        "meta_mean_anomaly": 110.2336,
        "meta_ephemeris_type": 0,
        "meta_classification_type": "U",
        "meta_norad_cat_id": 67044,
        "meta_element_set_no": 999,
        "meta_rev_at_epoch": 145,
        "meta_bstar": -0.0049603,
        "meta_mean_motion_dot": -0.01377866,
        "meta_mean_motion_ddot": 0,
        "tle_line1": "1 67044U 25294Q   25353.83335647 -.01377866  00000+0 -49603-2 0  9993",
        "tle_line2": "2 67044  43.0000 138.8101 0001772 275.8491 110.2336 15.90349546  1457"
      },
      "geometry": {
        "type": "Point",
        "coordinates": [
          -162.64332155818656,
          39.05371974242186
        ]
      }
    }
  ]
}